ESTCUBE 1               
1 39161U 13021C   22161.42574652  .00000574  00000+0  97003-4 0  9992
2 39161  97.9084 238.8451 0010665  83.7806 276.4624 14.72936652488433
FENGYUN 3C              
1 39260U 13052A   22161.76902463  .00000022  00000+0  32004-4 0  9996
2 39260  98.4535 190.2204 0010045 297.6863  62.3290 14.15925124450976
CASSIOPE                
1 39265U 13055A   22161.83298147  .00006814  00000+0  18265-3 0  9996
2 39265  80.9653 274.3617 0622692 337.9119  19.6254 14.38571276451368
ZACUBE-1 (TSHEPISOSAT)  
1 39417U 13066B   22161.88710073  .00001426  00000+0  17942-3 0  9994
2 39417  97.6359 133.6810 0059458  66.8086 293.9376 14.82310418462151
CINEMA-3 (KHUSAT-2)     
1 39426U 13066L   22161.81700248  .00000443  00000+0  76249-4 0  9994
2 39426  97.7988 102.0363 0101722 257.0168 101.9665 14.70156539458568
TRITON-1                
1 39427U 13066M   22161.79547198  .00000894  00000+0  14751-3 0  9994
2 39427  97.8133  97.8801 0110408 286.3180  72.5907 14.68955492457990
DELFI-N3XT              
1 39428U 13066N   22161.64771225  .00001551  00000+0  24625-3 0  9991
2 39428  97.8146  96.2979 0116086 300.2116  58.7635 14.69160516457537
GOMX-1                  
1 39430U 13066Q   22161.94489060  .00000896  00000+0  16738-3 0  9997
2 39430  97.8105  69.5159 0150736  65.6151 296.0706 14.60161961455348
BRITE-PL1 (LEM)         
1 39431U 13066R   22161.38884414  .00000194  00000+0  51747-4 0  9999
2 39431  97.7020  15.7288 0200189 250.4911 107.4564 14.47342399451340
ICUBE-1                 
1 39432U 13066S   22161.27021648  .00001389  00000+0  14143-3 0  9995
2 39432  97.4677 165.4175 0029302 289.6027  70.2031 14.91958444463636
HUMSAT-D                
1 39433U 13066T   22161.45347817  .00002626  00000+0  24760-3 0  9996
2 39433  97.4499 173.1644 0027369 261.7195  98.0922 14.94338422464172
VELOX-PII               
1 39438U 13066Y   22161.86934430  .00000939  00000+0  12900-3 0  9997
2 39438  97.6917 124.8379 0070919 117.3911 243.4540 14.78867594461160
FIRST-MOVE              
1 39439U 13066Z   22161.86749936  .00003110  00000+0  36486-3 0  9992
2 39439  97.6363 135.9927 0064684  62.4658 298.3110 14.84147955462160
CUBEBUG-2 (LO-74)       
1 39440U 13066AA  22161.88416347  .00000872  00000+0  12459-3 0  9999
2 39440  97.7258 119.7182 0079447 151.7284 208.8274 14.76981906460516
NEE-02 KRYSAOR          
1 39441U 13066AB  22161.81297097  .00000598  00000+0  90107-4 0  9994
2 39441  97.7369 116.8397 0080926 165.4317 194.9253 14.75725804459050
FUNCUBE-1 (AO-73)       
1 39444U 13066AE  22161.84113856  .00001771  00000+0  21582-3 0  9994
2 39444  97.6239 136.0414 0058186  55.5768 305.0927 14.83387207460543
HINCUBE                 
1 39445U 13066AF  22161.89190333  .00001720  00000+0  21084-3 0  9996
2 39445  97.6254 135.9113 0058292  57.5330 303.1502 14.83194237460491
UWE-3                   
1 39446U 13066AG  22161.84983670  .00001134  00000+0  15213-3 0  9992
2 39446  97.6851 126.1994 0070263 110.3285 250.5495 14.79535524459489
AIST-1 (RS-41)          
1 39492U 13078C   22161.93333262  .00000614  00000+0  63269-4 0  9999
2 39492  82.4190 242.8517 0020918 124.9502 235.3686 14.88439882458819
SPROUT                  
1 39770U 14029E   22161.93887334  .00003190  00000+0  32974-3 0  9999
2 39770  97.9408 278.8359 0009852 106.4847 253.7464 14.90810512436691
UNISAT-6                
1 40012U 14033C   22161.80332505  .00000985  00000+0  15026-3 0  9994
2 40012  97.6619 350.1233 0057531 179.1353 180.9966 14.74883947429003
BUGSAT-1 (TITA)         
1 40014U 14033E   22161.98439881  .00000670  00000+0  63845-4 0  9994
2 40014  98.1445 160.1251 0032079  59.8438 300.5955 14.96668979435178
DUCHIFAT-1              
1 40021U 14033M   22161.83853662  .00001869  00000+0  18611-3 0  9994
2 40021  98.0119 111.9195 0014143  65.3580 294.9109 14.92820858433713
NANOSATC-BR1            
1 40024U 14033Q   22161.83846685  .00001860  00000+0  19060-3 0  9994
2 40024  97.9857 105.3241 0013601  71.3945 288.8749 14.91676690433514
QB50P1                  
1 40025U 14033R   22161.81234973  .00001450  00000+0  15437-3 0  9993
2 40025  97.9606  99.1600 0013896  80.0605 280.2180 14.90464805433283
DTUSAT-2                
1 40030U 14033W   22161.79605414  .00001341  00000+0  14505-3 0  9992
2 40030  97.9377  94.5365 0013348  77.2779 282.9930 14.89924937432650
QB50P2                  
1 40032U 14033Y   22161.56665482  .00001475  00000+0  15912-3 0  9991
2 40032  97.9381  94.3194 0013268  78.7383 281.5325 14.89894329432590
POLYITAN-1              
1 40042U 14033AJ  22161.82672328  .00001894  00000+0  19958-3 0  9997
2 40042  97.9710 100.3557 0016081  72.5212 287.7762 14.90476554433173
TIGRISAT                
1 40043U 14033AK  22161.78325196  .00000773  00000+0  11893-3 0  9996
2 40043  97.6565 351.4042 0059368 176.6709 183.4908 14.74991684428647
AISAT                   
1 40054U 14034B   22161.74378858  .00001632  00000+0  22499-3 0  9997
2 40054  98.3588 332.8938 0011756 342.2905  17.7894 14.79638384428482
CANX-4                  
1 40055U 14034C   22161.69272409  .00000467  00000+0  76775-4 0  9999
2 40055  98.3553 318.4205 0014516  24.6384 335.5515 14.75425833427727
CANX-5                  
1 40056U 14034D   22161.69920372  .00000477  00000+0  78250-4 0  9990
2 40056  98.3553 318.4079 0014531  24.7976 335.3927 14.75420761418531
VELOX-I                 
1 40057U 14034E   22161.95163396  .00001172  00000+0  16579-3 0  9993
2 40057  98.3644 334.2416 0010312 357.7012   2.4160 14.79113954428514
METEOR-M 2              
1 40069U 14037A   22161.77351688 -.00000012  00000+0  13559-4 0  9991
2 40069  98.4313 179.8828 0005537 355.0564   5.0550 14.20710142410912
DX1                     
1 40071U 14037C   22161.92203289  .00000423  00000+0  60949-4 0  9994
2 40071  98.4099  30.3362 0008047 347.0698  13.0306 14.81857915428372
UKUBE-1                 
1 40074U 14037F   22161.88465818  .00001111  00000+0  13610-3 0  9997
2 40074  98.3834  42.2107 0003597 326.8992  33.1993 14.85376178429093
FIREBIRD 3              
1 40377U 15003B   22161.89045310  .00013919  00000+0  41844-3 0  9998
2 40377  99.1024  25.3394 0101879  48.1330 312.8543 15.29506116407417
FIREBIRD 4              
1 40378U 15003C   22161.85101189  .00013675  00000+0  41004-3 0  9999
2 40378  99.1028  25.4999 0101806  47.9133 313.0704 15.29598798407411
GRIFEX                  
1 40379U 15003D   22161.81710180  .00009256  00000+0  32840-3 0  9991
2 40379  99.1132  11.4529 0117253  89.6234 271.8432 15.23005974406613
CP10 (EXOCUBE)          
1 40380U 15003E   22161.50921205  .00006837  00000+0  26389-3 0  9994
2 40380  99.1220   3.9507 0124931 114.2210 247.2134 15.19694936406102
DEORBITSAIL             
1 40719U 15032E   22161.54136084  .00001552  00000+0  21962-3 0  9990
2 40719  97.7837  40.1101 0016952  31.9183 328.3052 14.78372803372861
NUDT-PHONESAT           
1 40900U 15049B   22161.87831111  .00018515  00000+0  53624-3 0  9996
2 40900  97.4004 179.8208 0006983 318.5114 165.8404 15.35603230373608
XW-2A                   
1 40903U 15049E   22161.83150149  .00016309  00000+0  26046-3 0  9997
2 40903  97.1793 220.3554 0011271 140.3536 329.9340 15.53190539378233
XW-2C                   
1 40906U 15049H   22161.88316155  .00003678  00000+0  17861-3 0  9996
2 40906  97.4929 165.3500 0014660  29.6714  88.5329 15.19005825371920
XW-2D                   
1 40907U 15049J   22161.84367078  .00004255  00000+0  20241-3 0  9991
2 40907  97.4914 165.2850 0013868  25.8151  94.5623 15.19643630371964
LILACSAT-2              
1 40908U 15049K   22161.82898328  .00001902  00000+0  10295-3 0  9991
2 40908  97.5160 162.4786 0016580  44.9921  76.5080 15.15751705371480
XW-2E                   
1 40909U 15049L   22161.84156573  .00006691  00000+0  28360-3 0  9995
2 40909  97.4649 169.7932 0012218   8.3216 114.2159 15.23403201372404
XW-2F                   
1 40910U 15049M   22161.83261752  .00006618  00000+0  28486-3 0  9990
2 40910  97.4731 168.9175 0013065   9.2547 112.6050 15.22877507372175
XW-2B                   
1 40911U 15049N   22161.86179142  .00004286  00000+0  20452-3 0  9999
2 40911  97.4905 165.9073 0013798  26.9797  57.8453 15.19533218371854
KAITUO 1B               
1 40912U 15049P   22161.85001480  .00007603  00000+0  29841-3 0  9995
2 40912  97.4366 173.2846 0011526 334.0006 149.2998 15.25950907372743
TIANWANG 1A (TW-1A)     
1 40928U 15051D   22161.88252522  .00032116  00000+0  40924-3 0  9995
2 40928  97.0390 184.5929 0009161  65.9916  55.8256 15.59213742377214
LAPAN-A2                
1 40931U 15052B   22161.22470234  .00000791  00000+0  20800-4 0  9996
2 40931   5.9996 220.6954 0013362  62.1183 298.0659 14.76813613362270
LQSAT                   
1 40958U 15057A   22161.88409675  .00000199  00000+0  38079-4 0  9992
2 40958  97.7494 208.3909 0017740 346.8636  13.2109 14.73363013359020
ATHENOXAT 1             
1 41168U 15077C   22161.32931801  .00008803  00000+0  35348-3 0  9993
2 41168  14.9905 143.2262 0009101 135.5533 263.6009 15.20822756359221
GALASSIA                
1 41170U 15077E   22161.57026643  .00007273  00000+0  29163-3 0  9990
2 41170  14.9871 132.1877 0010917 173.2841 186.7628 15.20211398359331
VELOX-II                
1 41171U 15077F   22161.73881280  .00005275  00000+0  23297-3 0  9997
2 41171  14.9901 203.8327 0007760  14.2876 345.7664 15.15687622358591
CHUBUSAT-2              
1 41338U 16012B   22161.41867006  .00001454  00000+0  10352-3 0  9990
2 41338  31.0033  68.6862 0013183  82.6503 277.5631 15.01355092346428
CHUBUSAT-3              
1 41339U 16012C   22161.94369654  .00001308  00000+0  92280-4 0  9994
2 41339  31.0121  62.2793 0012903  94.6609 265.5511 15.01437104346507
HORYU-4                 
1 41340U 16012D   22161.06843108  .00002383  00000+0  16509-3 0  9993
2 41340  31.0055  46.2881 0013013 127.0515 233.1313 15.03276040346610
